UNKNOWN                 
1 82162U          26061.75524579  .00004155  00000+0  61011-2 0  9993
2 82162 100.4732 355.8595 0060191  29.1007 331.3460 13.54292460515135
UNKNOWN                 
1 82189U          26054.27633996  .00000240  00000+0  92846-4 0  9998
2 82189  74.0332 275.3120 0015327  89.8098 270.4811 14.35271379642826
UNKNOWN                 
1 82199U          26060.30127872  .00000617  00000+0  52118-3 0  9996
2 82199  82.9689 174.8228 0038825 172.1827 217.8550 13.85878086620571
UNKNOWN                 
1 82205U          26062.25213279  .00005185  00000+0  14219-2 0  9991
2 82205  63.0110  16.6952 0496515 301.3169  54.0168 13.93938667619221
UNKNOWN                 
1 82223U          26061.13019982  .00002776  00000+0  15009-2 0  9993
2 82223  99.3167 315.1821 0067696 122.1658 238.6102 14.12292575459990
UNKNOWN                 
1 82250U          26060.68561053  .00004779  00000+0  24518-2 0  9993
2 82250  98.9082 330.9058 0072730 329.4254  59.9251 14.14494938627790
UNKNOWN                 
1 82272U          26061.97793918  .00000559  00000+0  18838-2 0  9997
2 82272  67.5247  55.4226 0751673  54.4787 312.3979 12.33600365281837
UNKNOWN                 
1 82303U          26062.10155753  .00028652  00000+0  22366-1 0  9991
2 82303  81.9338 293.4650 0033158  55.0427  97.2160 13.91751690525584
UNKNOWN                 
1 82311U          26061.37982845  .00000578  00000+0  86923-3 0  9996
2 82311  99.4246 116.5785 0110791 107.9284 253.3970 13.54660255561103
UNKNOWN                 
1 82363U          26061.88422684  .00000870  00000+0  14709-2 0  9996
2 82363  66.9388  22.3508 0450173 114.1388 250.7406 13.15676668300804
UNKNOWN                 
1 82369U          26045.50693129 -.00000082  00000+0 -26937-4 0  9992
2 82369  98.8964  63.6483 0083761 162.2169 198.1958 13.98212213566084
UNKNOWN                 
1 82381U          26062.59476127  .00034339  00000+0  39760-2 0  9997
2 82381  98.3927 296.4012 0006801 251.8561 108.1912 14.85379659522793
