CCSDS_OMM_VERS = 2.0
CREATION_DATE  = 
ORIGINATOR     = 

OBJECT_NAME    = UNKNOWN
OBJECT_ID      = 
CENTER_NAME    = EARTH
REF_FRAME      = TEME
TIME_SYSTEM    = UTC
MEAN_ELEMENT_THEORY = SGP/SGP4

EPOCH          = 2026-03-02T18:07:33.236256
MEAN_MOTION    = 13.54292460
ECCENTRICITY   = .0060191
INCLINATION    = 100.4732
RA_OF_ASC_NODE = 355.8595
ARG_OF_PERICENTER = 29.1007
MEAN_ANOMALY   = 331.3460

EPHEMERIS_TYPE = 0
CLASSIFICATION_TYPE = U
NORAD_CAT_ID   = 82162
ELEMENT_SET_NO = 999
REV_AT_EPOCH   = 51513
BSTAR          = .61011E-2
MEAN_MOTION_DOT = .4155E-4
MEAN_MOTION_DDOT = 0

CCSDS_OMM_VERS = 2.0
CREATION_DATE  = 
ORIGINATOR     = 

OBJECT_NAME    = UNKNOWN
OBJECT_ID      = 
CENTER_NAME    = EARTH
REF_FRAME      = TEME
TIME_SYSTEM    = UTC
MEAN_ELEMENT_THEORY = SGP/SGP4

EPOCH          = 2026-02-23T06:37:55.772544
MEAN_MOTION    = 14.35271379
ECCENTRICITY   = .0015327
INCLINATION    = 74.0332
RA_OF_ASC_NODE = 275.3120
ARG_OF_PERICENTER = 89.8098
MEAN_ANOMALY   = 270.4811

EPHEMERIS_TYPE = 0
CLASSIFICATION_TYPE = U
NORAD_CAT_ID   = 82189
ELEMENT_SET_NO = 999
REV_AT_EPOCH   = 64282
BSTAR          = .92846E-4
MEAN_MOTION_DOT = .24E-5
MEAN_MOTION_DDOT = 0

CCSDS_OMM_VERS = 2.0
CREATION_DATE  = 
ORIGINATOR     = 

OBJECT_NAME    = UNKNOWN
OBJECT_ID      = 
CENTER_NAME    = EARTH
REF_FRAME      = TEME
TIME_SYSTEM    = UTC
MEAN_ELEMENT_THEORY = SGP/SGP4

EPOCH          = 2026-03-01T07:13:50.481408
MEAN_MOTION    = 13.85878086
ECCENTRICITY   = .0038825
INCLINATION    = 82.9689
RA_OF_ASC_NODE = 174.8228
ARG_OF_PERICENTER = 172.1827
MEAN_ANOMALY   = 217.8550

EPHEMERIS_TYPE = 0
CLASSIFICATION_TYPE = U
NORAD_CAT_ID   = 82199
ELEMENT_SET_NO = 999
REV_AT_EPOCH   = 62057
BSTAR          = .52118E-3
MEAN_MOTION_DOT = .617E-5
MEAN_MOTION_DDOT = 0

CCSDS_OMM_VERS = 2.0
CREATION_DATE  = 
ORIGINATOR     = 

OBJECT_NAME    = UNKNOWN
OBJECT_ID      = 
CENTER_NAME    = EARTH
REF_FRAME      = TEME
TIME_SYSTEM    = UTC
MEAN_ELEMENT_THEORY = SGP/SGP4

EPOCH          = 2026-03-03T06:03:04.273056
MEAN_MOTION    = 13.93938667
ECCENTRICITY   = .0496515
INCLINATION    = 63.0110
RA_OF_ASC_NODE = 16.6952
ARG_OF_PERICENTER = 301.3169
MEAN_ANOMALY   = 54.0168

EPHEMERIS_TYPE = 0
CLASSIFICATION_TYPE = U
NORAD_CAT_ID   = 82205
ELEMENT_SET_NO = 999
REV_AT_EPOCH   = 61922
BSTAR          = .14219E-2
MEAN_MOTION_DOT = .5185E-4
MEAN_MOTION_DDOT = 0

CCSDS_OMM_VERS = 2.0
CREATION_DATE  = 
ORIGINATOR     = 

OBJECT_NAME    = UNKNOWN
OBJECT_ID      = 
CENTER_NAME    = EARTH
REF_FRAME      = TEME
TIME_SYSTEM    = UTC
MEAN_ELEMENT_THEORY = SGP/SGP4

EPOCH          = 2026-03-02T03:07:29.264448
MEAN_MOTION    = 14.12292575
ECCENTRICITY   = .0067696
INCLINATION    = 99.3167
RA_OF_ASC_NODE = 315.1821
ARG_OF_PERICENTER = 122.1658
MEAN_ANOMALY   = 238.6102

EPHEMERIS_TYPE = 0
CLASSIFICATION_TYPE = U
NORAD_CAT_ID   = 82223
ELEMENT_SET_NO = 999
REV_AT_EPOCH   = 45999
BSTAR          = .15009E-2
MEAN_MOTION_DOT = .2776E-4
MEAN_MOTION_DDOT = 0

CCSDS_OMM_VERS = 2.0
CREATION_DATE  = 
ORIGINATOR     = 

OBJECT_NAME    = UNKNOWN
OBJECT_ID      = 
CENTER_NAME    = EARTH
REF_FRAME      = TEME
TIME_SYSTEM    = UTC
MEAN_ELEMENT_THEORY = SGP/SGP4

EPOCH          = 2026-03-01T16:27:16.749792
MEAN_MOTION    = 14.14494938
ECCENTRICITY   = .007273
INCLINATION    = 98.9082
RA_OF_ASC_NODE = 330.9058
ARG_OF_PERICENTER = 329.4254
MEAN_ANOMALY   = 59.9251

EPHEMERIS_TYPE = 0
CLASSIFICATION_TYPE = U
NORAD_CAT_ID   = 82250
ELEMENT_SET_NO = 999
REV_AT_EPOCH   = 62779
BSTAR          = .24518E-2
MEAN_MOTION_DOT = .4779E-4
MEAN_MOTION_DDOT = 0

CCSDS_OMM_VERS = 2.0
CREATION_DATE  = 
ORIGINATOR     = 

OBJECT_NAME    = UNKNOWN
OBJECT_ID      = 
CENTER_NAME    = EARTH
REF_FRAME      = TEME
TIME_SYSTEM    = UTC
MEAN_ELEMENT_THEORY = SGP/SGP4

EPOCH          = 2026-03-02T23:28:13.945152
MEAN_MOTION    = 12.33600365
ECCENTRICITY   = .0751673
INCLINATION    = 67.5247
RA_OF_ASC_NODE = 55.4226
ARG_OF_PERICENTER = 54.4787
MEAN_ANOMALY   = 312.3979

EPHEMERIS_TYPE = 0
CLASSIFICATION_TYPE = U
NORAD_CAT_ID   = 82272
ELEMENT_SET_NO = 999
REV_AT_EPOCH   = 28183
BSTAR          = .18838E-2
MEAN_MOTION_DOT = .559E-5
MEAN_MOTION_DDOT = 0

CCSDS_OMM_VERS = 2.0
CREATION_DATE  = 
ORIGINATOR     = 

OBJECT_NAME    = UNKNOWN
OBJECT_ID      = 
CENTER_NAME    = EARTH
REF_FRAME      = TEME
TIME_SYSTEM    = UTC
MEAN_ELEMENT_THEORY = SGP/SGP4

EPOCH          = 2026-03-03T02:26:14.570592
MEAN_MOTION    = 13.91751690
ECCENTRICITY   = .0033158
INCLINATION    = 81.9338
RA_OF_ASC_NODE = 293.4650
ARG_OF_PERICENTER = 55.0427
MEAN_ANOMALY   = 97.2160

EPHEMERIS_TYPE = 0
CLASSIFICATION_TYPE = U
NORAD_CAT_ID   = 82303
ELEMENT_SET_NO = 999
REV_AT_EPOCH   = 52558
BSTAR          = .22366E-1
MEAN_MOTION_DOT = .28652E-3
MEAN_MOTION_DDOT = 0

CCSDS_OMM_VERS = 2.0
CREATION_DATE  = 
ORIGINATOR     = 

OBJECT_NAME    = UNKNOWN
OBJECT_ID      = 
CENTER_NAME    = EARTH
REF_FRAME      = TEME
TIME_SYSTEM    = UTC
MEAN_ELEMENT_THEORY = SGP/SGP4

EPOCH          = 2026-03-02T09:06:57.178080
MEAN_MOTION    = 13.54660255
ECCENTRICITY   = .0110791
INCLINATION    = 99.4246
RA_OF_ASC_NODE = 116.5785
ARG_OF_PERICENTER = 107.9284
MEAN_ANOMALY   = 253.3970

EPHEMERIS_TYPE = 0
CLASSIFICATION_TYPE = U
NORAD_CAT_ID   = 82311
ELEMENT_SET_NO = 999
REV_AT_EPOCH   = 56110
BSTAR          = .86923E-3
MEAN_MOTION_DOT = .578E-5
MEAN_MOTION_DDOT = 0

CCSDS_OMM_VERS = 2.0
CREATION_DATE  = 
ORIGINATOR     = 

OBJECT_NAME    = UNKNOWN
OBJECT_ID      = 
CENTER_NAME    = EARTH
REF_FRAME      = TEME
TIME_SYSTEM    = UTC
MEAN_ELEMENT_THEORY = SGP/SGP4

EPOCH          = 2026-03-02T21:13:17.198976
MEAN_MOTION    = 13.15676668
ECCENTRICITY   = .0450173
INCLINATION    = 66.9388
RA_OF_ASC_NODE = 22.3508
ARG_OF_PERICENTER = 114.1388
MEAN_ANOMALY   = 250.7406

EPHEMERIS_TYPE = 0
CLASSIFICATION_TYPE = U
NORAD_CAT_ID   = 82363
ELEMENT_SET_NO = 999
REV_AT_EPOCH   = 30080
BSTAR          = .14709E-2
MEAN_MOTION_DOT = .87E-5
MEAN_MOTION_DDOT = 0

CCSDS_OMM_VERS = 2.0
CREATION_DATE  = 
ORIGINATOR     = 

OBJECT_NAME    = UNKNOWN
OBJECT_ID      = 
CENTER_NAME    = EARTH
REF_FRAME      = TEME
TIME_SYSTEM    = UTC
MEAN_ELEMENT_THEORY = SGP/SGP4

EPOCH          = 2026-02-14T12:09:58.863456
MEAN_MOTION    = 13.98212213
ECCENTRICITY   = .0083761
INCLINATION    = 98.8964
RA_OF_ASC_NODE = 63.6483
ARG_OF_PERICENTER = 162.2169
MEAN_ANOMALY   = 198.1958

EPHEMERIS_TYPE = 0
CLASSIFICATION_TYPE = U
NORAD_CAT_ID   = 82369
ELEMENT_SET_NO = 999
REV_AT_EPOCH   = 56608
BSTAR          = -.26937E-4
MEAN_MOTION_DOT = -.82E-6
MEAN_MOTION_DDOT = 0

CCSDS_OMM_VERS = 2.0
CREATION_DATE  = 
ORIGINATOR     = 

OBJECT_NAME    = UNKNOWN
OBJECT_ID      = 
CENTER_NAME    = EARTH
REF_FRAME      = TEME
TIME_SYSTEM    = UTC
MEAN_ELEMENT_THEORY = SGP/SGP4

EPOCH          = 2026-03-03T14:16:27.373728
MEAN_MOTION    = 14.85379659
ECCENTRICITY   = .0006801
INCLINATION    = 98.3927
RA_OF_ASC_NODE = 296.4012
ARG_OF_PERICENTER = 251.8561
MEAN_ANOMALY   = 108.1912

EPHEMERIS_TYPE = 0
CLASSIFICATION_TYPE = U
NORAD_CAT_ID   = 82381
ELEMENT_SET_NO = 999
REV_AT_EPOCH   = 52279
BSTAR          = .3976E-2
MEAN_MOTION_DOT = .34339E-3
MEAN_MOTION_DDOT = 0

